ONEWEB-0674             
1 55833U 23029AP  24313.68258626  .00001000  00000+0  26626-2 0  9990
2 55833  87.9024  46.1591 0002532 105.7580 254.3829 13.14501224 82499
ONEWEB-0675             
1 55834U 23029AQ  24314.28067888  .00000126  00000+0  28282-3 0  9995
2 55834  87.9186  61.2956 0001316  96.6403 263.4880 13.19725302 82480
ONEWEB-0720             
1 55835U 23029AR  24313.66625628  .00000144  00000+0  32648-3 0  9990
2 55835  87.9185  61.4169 0001955  88.4729 271.6627 13.19726705 81619
ONEWEB-0537             
1 56046U 23043A   24313.79002095  .00000156  00000+0  37365-3 0  9996
2 56046  87.9105 345.3839 0001556  94.9732 265.1577 13.16596054 81933
ONEWEB-0538             
1 56047U 23043B   24314.39166475  .00000187  00000+0  45560-3 0  9997
2 56047  87.9105 345.2852 0001684  85.8989 274.2334 13.16595384 82931
ONEWEB-0546             
1 56048U 23043C   24313.84701683  .00000141  00000+0  33617-3 0  9993
2 56048  87.9105 345.3598 0001250 117.2986 242.8272 13.16595487 81942
ONEWEB-0547             
1 56049U 23043D   24313.66202884 -.00000036  00000+0 -11811-3 0  9990
2 56049  87.9332   0.6159 0001781  90.8664 269.2674 13.21824614 80870
ONEWEB-0548             
1 56050U 23043E   24314.48032839  .00000142  00000+0  33816-3 0  9999
2 56050  87.9104 345.2760 0002330 101.9049 258.2343 13.16596247 82939
